{
"type": "FeatureCollection",
"name": "col_aareas",
"crs": { "type": "name", "properties": { "name": "urn:ogc:def:crs:EPSG::3857" } },
"features": [
{ "type": "Feature", "properties": { "OBJECTID": 113, "Name": "MB-4", "FolderPath": "Justin Woody", "SymbolID": 0, "AltMode": 0, "Base": 0.0, "Clamped": -1, "Extruded": 0, "Snippet": " ", "PopupInfo": null, "SHAPE_Length": 3106.3186245201668, "SHAPE_Area": 474653.74958250078 }, "geometry": { "type": "MultiPolygon", "coordinates": [ [ [ [ -10740474.8704, 3325043.915500000119209, 0.0 ], [ -10740899.8966, 3325318.877599999308586, 0.0 ], [ -10740108.3898, 3326250.110600002110004, 0.0 ], [ -10739979.1331, 3325759.045299999415874, 0.0 ], [ -10740474.8704, 3325043.915500000119209, 0.0 ] ] ] ] } },
{ "type": "Feature", "properties": { "OBJECTID": 114, "Name": "MB-1", "FolderPath": "Johny Jurisich", "SymbolID": 0, "AltMode": 0, "Base": 0.0, "Clamped": -1, "Extruded": 0, "Snippet": " ", "PopupInfo": "Declined", "SHAPE_Length": 2420.4096624422286, "SHAPE_Area": 327938.93933370087 }, "geometry": { "type": "MultiPolygon", "coordinates": [ [ [ [ -10744893.1665, 3325481.692500002682209, 0.0 ], [ -10745031.5471, 3325842.836900003254414, 0.0 ], [ -10744285.6603, 3326229.107900001108646, 0.0 ], [ -10744247.6436, 3325727.650700002908707, 0.0 ], [ -10744893.1665, 3325481.692500002682209, 0.0 ] ] ] ] } },
{ "type": "Feature", "properties": { "OBJECTID": 115, "Name": "MB-2", "FolderPath": "Justin Woody", "SymbolID": 0, "AltMode": 0, "Base": 0.0, "Clamped": -1, "Extruded": 0, "Snippet": " ", "PopupInfo": "Declined", "SHAPE_Length": 2304.1365987136655, "SHAPE_Area": 325484.98835700128 }, "geometry": { "type": "MultiPolygon", "coordinates": [ [ [ [ -10744693.9592, 3324965.108499996364117, 0.0 ], [ -10744880.2409, 3325449.215899996459484, 0.0 ], [ -10744244.6023, 3325691.492899999022484, 0.0 ], [ -10744200.503, 3325099.340400002896786, 0.0 ], [ -10744693.9592, 3324965.108499996364117, 0.0 ] ] ] ] } },
{ "type": "Feature", "properties": { "OBJECTID": 116, "Name": "MB-3", "FolderPath": "Johny Jurisich", "SymbolID": 0, "AltMode": 0, "Base": 0.0, "Clamped": -1, "Extruded": 0, "Snippet": " ", "PopupInfo": "Declined", "SHAPE_Length": 3397.3318551236353, "SHAPE_Area": 439497.52615804831 }, "geometry": { "type": "MultiPolygon", "coordinates": [ [ [ [ -10742035.2372, 3326262.1787, 0.0 ], [ -10741562.8676, 3326262.083499997854233, 0.0 ], [ -10740690.0447, 3325619.177400000393391, 0.0 ], [ -10740948.2916, 3325314.882100000977516, 0.0 ], [ -10742035.2372, 3326262.1787, 0.0 ] ] ] ] } },
{ "type": "Feature", "properties": { "OBJECTID": 117, "Name": "SAB-1", "FolderPath": "Johny Jurisich", "SymbolID": 0, "AltMode": 0, "Base": 0.0, "Clamped": -1, "Extruded": 0, "Snippet": " ", "PopupInfo": "Needs to be Modified", "SHAPE_Length": 4102.8506267482271, "SHAPE_Area": 495494.23055467504 }, "geometry": { "type": "MultiPolygon", "coordinates": [ [ [ [ -10772021.8544, 3291238.141600001603365, 0.0 ], [ -10772115.3754, 3291169.899399999529123, 0.0 ], [ -10772652.931, 3291762.279699999839067, 0.0 ], [ -10773465.7271, 3291573.527199998497963, 0.0 ], [ -10773471.8097, 3291980.838599998503923, 0.0 ], [ -10772296.3347, 3291953.410700000822544, 0.0 ], [ -10772065.1933, 3291441.142799999564886, 0.0 ], [ -10772021.8544, 3291238.141600001603365, 0.0 ] ] ] ] } },
{ "type": "Feature", "properties": { "OBJECTID": 118, "Name": "SAB-6", "FolderPath": "Justin Woody", "SymbolID": 0, "AltMode": 0, "Base": 0.0, "Clamped": -1, "Extruded": 0, "Snippet": " ", "PopupInfo": "Declined", "SHAPE_Length": 2590.2146143223981, "SHAPE_Area": 328602.45184436586 }, "geometry": { "type": "MultiPolygon", "coordinates": [ [ [ [ -10767366.3343, 3290639.737799998372793, 0.0 ], [ -10766993.0107, 3290124.928899999707937, 0.0 ], [ -10766939.0271, 3289663.906500000506639, 0.0 ], [ -10767026.4654, 3289585.091600000858307, 0.0 ], [ -10767635.4922, 3290316.036400001496077, 0.0 ], [ -10767366.3343, 3290639.737799998372793, 0.0 ] ] ] ] } },
{ "type": "Feature", "properties": { "OBJECTID": 119, "Name": "SAB-7", "FolderPath": "Johny Jurisich", "SymbolID": 0, "AltMode": 0, "Base": 0.0, "Clamped": -1, "Extruded": 0, "Snippet": " ", "PopupInfo": "Conditional", "SHAPE_Length": 2657.7644816390584, "SHAPE_Area": 405993.81662644824 }, "geometry": { "type": "MultiPolygon", "coordinates": [ [ [ [ -10766834.8614, 3289344.978999998420477, 0.0 ], [ -10766983.1264, 3288464.890599999576807, 0.0 ], [ -10767439.3263, 3288633.30350000038743, 0.0 ], [ -10767371.6567, 3289057.151799999177456, 0.0 ], [ -10767173.2097, 3289494.185199998319149, 0.0 ], [ -10766834.8614, 3289344.978999998420477, 0.0 ] ] ] ] } },
{ "type": "Feature", "properties": { "OBJECTID": 120, "Name": "SAB-8", "FolderPath": "Johny Jurisich", "SymbolID": 0, "AltMode": 0, "Base": 0.0, "Clamped": -1, "Extruded": 0, "Snippet": " ", "PopupInfo": "Declined", "SHAPE_Length": 2623.4844443429492, "SHAPE_Area": 317825.82984033733 }, "geometry": { "type": "MultiPolygon", "coordinates": [ [ [ [ -10768112.2212, 3287704.036200001835823, 0.0 ], [ -10767773.8729, 3287637.1074, 0.0 ], [ -10767558.6986, 3286763.823100000619888, 0.0 ], [ -10767892.4849, 3286690.206399999558926, 0.0 ], [ -10768112.2212, 3287704.036200001835823, 0.0 ] ] ] ] } },
{ "type": "Feature", "properties": { "OBJECTID": 121, "Name": "SAB-9", "FolderPath": "Justin Woody", "SymbolID": 0, "AltMode": 0, "Base": 0.0, "Clamped": -1, "Extruded": 0, "Snippet": " ", "PopupInfo": "Declined", "SHAPE_Length": 1458.4978182167574, "SHAPE_Area": 98277.793354979192 }, "geometry": { "type": "MultiPolygon", "coordinates": [ [ [ [ -10767765.5093, 3286139.281599998474121, 0.0 ], [ -10767589.112, 3286177.707400001585484, 0.0 ], [ -10767427.1609, 3285652.491799999028444, 0.0 ], [ -10767601.2773, 3285614.283300001174212, 0.0 ], [ -10767765.5093, 3286139.281599998474121, 0.0 ] ] ] ] } },
{ "type": "Feature", "properties": { "OBJECTID": 122, "Name": "SAB-20", "FolderPath": "Johny Jurisich", "SymbolID": 0, "AltMode": 0, "Base": 0.0, "Clamped": -1, "Extruded": 0, "Snippet": " ", "PopupInfo": "Approved", "SHAPE_Length": 2775.5155162677916, "SHAPE_Area": 421620.05607171915 }, "geometry": { "type": "MultiPolygon", "coordinates": [ [ [ [ -10760750.6753, 3281190.819699998944998, 0.0 ], [ -10759874.7714, 3280846.413699999451637, 0.0 ], [ -10760232.128, 3280477.633000001311302, 0.0 ], [ -10761011.4696, 3280783.618900001049042, 0.0 ], [ -10760750.6753, 3281190.819699998944998, 0.0 ] ] ] ] } },
{ "type": "Feature", "properties": { "OBJECTID": 123, "Name": "SAB-2", "FolderPath": "Justin Woody", "SymbolID": 0, "AltMode": 0, "Base": 0.0, "Clamped": -1, "Extruded": 0, "Snippet": " ", "PopupInfo": "Contigent", "SHAPE_Length": 3170.8197366478998, "SHAPE_Area": 518914.97375680454 }, "geometry": { "type": "MultiPolygon", "coordinates": [ [ [ [ -10773454.3221, 3291452.804699998348951, 0.0 ], [ -10772506.9469, 3291434.664000000804663, 0.0 ], [ -10772238.5493, 3291130.37950000166893, 0.0 ], [ -10772268.9627, 3290969.925599999725819, 0.0 ], [ -10773462.6857, 3290992.600699998438358, 0.0 ], [ -10773454.3221, 3291452.804699998348951, 0.0 ] ] ] ] } },
{ "type": "Feature", "properties": { "OBJECTID": 124, "Name": "SAB-3", "FolderPath": "Johny Jurisich", "SymbolID": 0, "AltMode": 0, "Base": 0.0, "Clamped": -1, "Extruded": 0, "Snippet": " ", "PopupInfo": "Approved", "SHAPE_Length": 3208.3645962522564, "SHAPE_Area": 519181.05835428921 }, "geometry": { "type": "MultiPolygon", "coordinates": [ [ [ [ -10773463.4461, 3290957.832299999892712, 0.0 ], [ -10772275.8057, 3290935.157200001180172, 0.0 ], [ -10772361.7233, 3290484.904399998486042, 0.0 ], [ -10773471.8097, 3290506.06700000166893, 0.0 ], [ -10773463.4461, 3290957.832299999892712, 0.0 ] ] ] ] } },
{ "type": "Feature", "properties": { "OBJECTID": 125, "Name": "SAB-4", "FolderPath": "Johny Jurisich", "SymbolID": 0, "AltMode": 0, "Base": 0.0, "Clamped": -1, "Extruded": 0, "Snippet": " ", "PopupInfo": "Approved", "SHAPE_Length": 2446.3247939480157, "SHAPE_Area": 372871.15321950411 }, "geometry": { "type": "MultiPolygon", "coordinates": [ [ [ [ -10772826.2869, 3290458.990899998694658, 0.0 ], [ -10772837.6919, 3289881.567600000649691, 0.0 ], [ -10773482.4544, 3289893.875900000333786, 0.0 ], [ -10773472.57, 3290471.299899999052286, 0.0 ], [ -10772826.2869, 3290458.990899998694658, 0.0 ] ] ] ] } },
{ "type": "Feature", "properties": { "OBJECTID": 126, "Name": "SAB-5", "FolderPath": "Justin Woody", "SymbolID": 0, "AltMode": 0, "Base": 0.0, "Clamped": -1, "Extruded": 0, "Snippet": " ", "PopupInfo": "Modify", "SHAPE_Length": 2756.4803778641899, "SHAPE_Area": 371996.16294109606 }, "geometry": { "type": "MultiPolygon", "coordinates": [ [ [ [ -10773483.2147, 3289859.110300000756979, 0.0 ], [ -10772838.4522, 3289846.802000001072884, 0.0 ], [ -10772845.2952, 3289522.687800001353025, 0.0 ], [ -10772624.0382, 3289518.585200000554323, 0.0 ], [ -10772627.8399, 3289329.864199999719858, 0.0 ], [ -10773492.3387, 3289346.490499999374151, 0.0 ], [ -10773483.2147, 3289859.110300000756979, 0.0 ] ] ] ] } },
{ "type": "Feature", "properties": { "OBJECTID": 127, "Name": "SAB-10", "FolderPath": "Johny Jurisich", "SymbolID": 0, "AltMode": 0, "Base": 0.0, "Clamped": -1, "Extruded": 0, "Snippet": " ", "PopupInfo": "Declined", "SHAPE_Length": 3188.9388380311307, "SHAPE_Area": 330794.94379591383 }, "geometry": { "type": "MultiPolygon", "coordinates": [ [ [ [ -10767087.2921, 3284061.85869999974966, 0.0 ], [ -10766872.878, 3284081.068599998950958, 0.0 ], [ -10766672.1502, 3283606.871599998325109, 0.0 ], [ -10766571.7862, 3282815.429299999028444, 0.0 ], [ -10766910.8947, 3282808.954500000923872, 0.0 ], [ -10766934.4651, 3283057.367800001055002, 0.0 ], [ -10766827.2581, 3283259.38230000063777, 0.0 ], [ -10767087.2921, 3284061.85869999974966, 0.0 ] ] ] ] } },
{ "type": "Feature", "properties": { "OBJECTID": 128, "Name": "SAB-11", "FolderPath": "Justin Woody", "SymbolID": 0, "AltMode": 0, "Base": 0.0, "Clamped": -1, "Extruded": 0, "Snippet": " ", "PopupInfo": "Declined", "SHAPE_Length": 2635.5595617223939, "SHAPE_Area": 315178.36487111321 }, "geometry": { "type": "MultiPolygon", "coordinates": [ [ [ [ -10766567.2241, 3282780.682, 0.0 ], [ -10766479.0254, 3282082.302099999040365, 0.0 ], [ -10766805.2085, 3281694.712600000202656, 0.0 ], [ -10766907.8534, 3282774.207299999892712, 0.0 ], [ -10766567.2241, 3282780.682, 0.0 ] ] ] ] } },
{ "type": "Feature", "properties": { "OBJECTID": 129, "Name": "SAB-19", "FolderPath": "Johny Jurisich", "SymbolID": 0, "AltMode": 0, "Base": 0.0, "Clamped": -1, "Extruded": 0, "Snippet": " ", "PopupInfo": "Declined", "SHAPE_Length": 2633.161576510573, "SHAPE_Area": 398831.90438109357 }, "geometry": { "type": "MultiPolygon", "coordinates": [ [ [ [ -10765622.13, 3277393.99379999935627, 0.0 ], [ -10764731.7799, 3277456.125700000673532, 0.0 ], [ -10764699.0856, 3277017.757100000977516, 0.0 ], [ -10765454.0963, 3276886.378600001335144, 0.0 ], [ -10765622.13, 3277393.99379999935627, 0.0 ] ] ] ] } },
{ "type": "Feature", "properties": { "OBJECTID": 130, "Name": "SAB-18", "FolderPath": "Johny Jurisich", "SymbolID": 0, "AltMode": 0, "Base": 0.0, "Clamped": -1, "Extruded": 0, "Snippet": " ", "PopupInfo": "Declined", "SHAPE_Length": 2947.422580311199, "SHAPE_Area": 518024.09628515388 }, "geometry": { "type": "MultiPolygon", "coordinates": [ [ [ [ -10764524.2089, 3277505.313700001686811, 0.0 ], [ -10765403.9144, 3277444.04450000077486, 0.0 ], [ -10765561.3033, 3277945.208500001579523, 0.0 ], [ -10764737.8625, 3278160.522599998861551, 0.0 ], [ -10764524.2089, 3277505.313700001686811, 0.0 ] ] ] ] } },
{ "type": "Feature", "properties": { "OBJECTID": 131, "Name": "SAB-17", "FolderPath": "Johny Jurisich", "SymbolID": 0, "AltMode": 0, "Base": 0.0, "Clamped": -1, "Extruded": 0, "Snippet": " ", "PopupInfo": "Declined", "SHAPE_Length": 2915.1646490404901, "SHAPE_Area": 516152.77775276522 }, "geometry": { "type": "MultiPolygon", "coordinates": [ [ [ [ -10765755.1883, 3278559.661200001835823, 0.0 ], [ -10764937.8301, 3278773.259100001305342, 0.0 ], [ -10764748.5072, 3278193.531899999827147, 0.0 ], [ -10765571.948, 3277978.43299999833107, 0.0 ], [ -10765755.1883, 3278559.661200001835823, 0.0 ] ] ] ] } },
{ "type": "Feature", "properties": { "OBJECTID": 132, "Name": "SAB-16", "FolderPath": "Johny Jurisich", "SymbolID": 0, "AltMode": 0, "Base": 0.0, "Clamped": -1, "Extruded": 0, "Snippet": " ", "PopupInfo": "Declined", "SHAPE_Length": 2911.9307187971513, "SHAPE_Area": 516283.12770605739 }, "geometry": { "type": "MultiPolygon", "coordinates": [ [ [ [ -10765949.8336, 3279178.673000000417233, 0.0 ], [ -10765138.5581, 3279390.770399998873472, 0.0 ], [ -10764948.4748, 3278806.270100001245737, 0.0 ], [ -10765765.833, 3278592.887299999594688, 0.0 ], [ -10765949.8336, 3279178.673000000417233, 0.0 ] ] ] ] } },
{ "type": "Feature", "properties": { "OBJECTID": 133, "Name": "SAB-15", "FolderPath": "Justin Woody", "SymbolID": 0, "AltMode": 0, "Base": 0.0, "Clamped": -1, "Extruded": 0, "Snippet": " ", "PopupInfo": "Declined", "SHAPE_Length": 2908.6549823309265, "SHAPE_Area": 516371.33666509861 }, "geometry": { "type": "MultiPolygon", "coordinates": [ [ [ [ -10766146.7599, 3279802.460299998521805, 0.0 ], [ -10765341.567, 3280012.8412000015378, 0.0 ], [ -10765149.9631, 3279423.782800000160933, 0.0 ], [ -10765960.4782, 3279211.900699999183416, 0.0 ], [ -10766146.7599, 3279802.460299998521805, 0.0 ] ] ] ] } },
{ "type": "Feature", "properties": { "OBJECTID": 134, "Name": "SAB-14", "FolderPath": "Justin Woody", "SymbolID": 0, "AltMode": 0, "Base": 0.0, "Clamped": -1, "Extruded": 0, "Snippet": " ", "PopupInfo": "Declined", "SHAPE_Length": 2905.894711460016, "SHAPE_Area": 516540.05796576175 }, "geometry": { "type": "MultiPolygon", "coordinates": [ [ [ [ -10766344.4465, 3280430.807900000363588, 0.0 ], [ -10765546.0966, 3280639.688200000673532, 0.0 ], [ -10765352.2117, 3280045.855200000107288, 0.0 ], [ -10766157.4045, 3279835.689500000327826, 0.0 ], [ -10766344.4465, 3280430.807900000363588, 0.0 ] ] ] ] } },
{ "type": "Feature", "properties": { "OBJECTID": 135, "Name": "SAB-13", "FolderPath": "Johny Jurisich", "SymbolID": 0, "AltMode": 0, "Base": 0.0, "Clamped": -1, "Extruded": 0, "Snippet": " ", "PopupInfo": "Declined", "SHAPE_Length": 2824.5374847752119, "SHAPE_Area": 515732.68134731054 }, "geometry": { "type": "MultiPolygon", "coordinates": [ [ [ [ -10766297.3058, 3281160.392499998211861, 0.0 ], [ -10765761.271, 3281300.444400001317263, 0.0 ], [ -10765556.7413, 3280672.703699998557568, 0.0 ], [ -10766355.0912, 3280464.038699999451637, 0.0 ], [ -10766494.2321, 3280906.4037000015378, 0.0 ], [ -10766297.3058, 3281160.392499998211861, 0.0 ] ] ] ] } },
{ "type": "Feature", "properties": { "OBJECTID": 136, "Name": "SAB-12", "FolderPath": "Johny Jurisich", "SymbolID": 0, "AltMode": 0, "Base": 0.0, "Clamped": -1, "Extruded": 0, "Snippet": " ", "PopupInfo": "Approved", "SHAPE_Length": 1490.0231398048456, "SHAPE_Area": 94229.818459072267 }, "geometry": { "type": "MultiPolygon", "coordinates": [ [ [ [ -10765887.4862, 3281687.590999998152256, 0.0 ], [ -10765771.9157, 3281333.461599998176098, 0.0 ], [ -10766262.3306, 3281205.49379999935627, 0.0 ], [ -10765887.4862, 3281687.590999998152256, 0.0 ] ] ] ] } },
{ "type": "Feature", "properties": { "OBJECTID": 137, "Name": "SAB-21", "FolderPath": "Justin Woody", "SymbolID": 0, "AltMode": 0, "Base": 0.0, "Clamped": -1, "Extruded": 0, "Snippet": " ", "PopupInfo": "Accepted", "SHAPE_Length": 2981.1874665830383, "SHAPE_Area": 518566.80133876082 }, "geometry": { "type": "MultiPolygon", "coordinates": [ [ [ [ -10760334.0128, 3281715.645599998533726, 0.0 ], [ -10759417.8113, 3281316.629299998283386, 0.0 ], [ -10759848.1599, 3280873.603399999439716, 0.0 ], [ -10760553.749, 3281150.681699998676777, 0.0 ], [ -10760334.0128, 3281715.645599998533726, 0.0 ] ] ] ] } },
{ "type": "Feature", "properties": { "OBJECTID": 172, "Name": "AB-1", "FolderPath": "Johny Jurisich", "SymbolID": 0, "AltMode": 0, "Base": 0.0, "Clamped": -1, "Extruded": 0, "Snippet": " ", "PopupInfo": "Declined", "SHAPE_Length": 2887.1382657293079, "SHAPE_Area": 328727.27084350411 }, "geometry": { "type": "MultiPolygon", "coordinates": [ [ [ [ -10796021.0108, 3258204.398499999195337, 0.0 ], [ -10796298.5325, 3258257.825100000947714, 0.0 ], [ -10796494.6984, 3258573.00279999896884, 0.0 ], [ -10796938.733, 3258830.881000000983477, 0.0 ], [ -10796915.1627, 3259031.671700000762939, 0.0 ], [ -10796633.0791, 3258988.583299998193979, 0.0 ], [ -10796274.9622, 3258673.395799998193979, 0.0 ], [ -10795949.5396, 3258624.491799999028444, 0.0 ], [ -10796021.0108, 3258204.398499999195337, 0.0 ] ] ] ] } },
{ "type": "Feature", "properties": { "OBJECTID": 173, "Name": "AB-2", "FolderPath": "Justin Woody", "SymbolID": 0, "AltMode": 0, "Base": 0.0, "Clamped": -1, "Extruded": 0, "Snippet": " ", "PopupInfo": "Declined", "SHAPE_Length": 2410.4863720421258, "SHAPE_Area": 328218.1716672703 }, "geometry": { "type": "MultiPolygon", "coordinates": [ [ [ [ -10795915.3245, 3258619.321400001645088, 0.0 ], [ -10795543.5217, 3258563.523600000888109, 0.0 ], [ -10795476.6123, 3258735.441799998283386, 0.0 ], [ -10795300.215, 3258706.788600001484156, 0.0 ], [ -10795228.7437, 3258367.69480000063777, 0.0 ], [ -10795453.042, 3258095.1765, 0.0 ], [ -10795987.5562, 3258197.935699999332428, 0.0 ], [ -10795915.3245, 3258619.321400001645088, 0.0 ] ] ] ] } },
{ "type": "Feature", "properties": { "OBJECTID": 174, "Name": "AB-3", "FolderPath": "Johny Jurisich", "SymbolID": 0, "AltMode": 0, "Base": 0.0, "Clamped": -1, "Extruded": 0, "Snippet": " ", "PopupInfo": "Declined", "SHAPE_Length": 2190.5874576286628, "SHAPE_Area": 286560.5103620835 }, "geometry": { "type": "MultiPolygon", "coordinates": [ [ [ [ -10794970.2304, 3259509.315699998289347, 0.0 ], [ -10794513.4014, 3259065.146099999547005, 0.0 ], [ -10795216.5783, 3258888.403400000184774, 0.0 ], [ -10795300.215, 3259065.065200001001358, 0.0 ], [ -10795275.8844, 3259354.192600000649691, 0.0 ], [ -10794970.2304, 3259509.315699998289347, 0.0 ] ] ] ] } },
{ "type": "Feature", "properties": { "OBJECTID": 175, "Name": "AB-4", "FolderPath": "Justin Woody", "SymbolID": 0, "AltMode": 0, "Base": 0.0, "Clamped": -1, "Extruded": 0, "Snippet": " ", "PopupInfo": "Declined", "SHAPE_Length": 3087.8153262144697, "SHAPE_Area": 445006.76765929698 }, "geometry": { "type": "MultiPolygon", "coordinates": [ [ [ [ -10793325.6298, 3258606.826099999248981, 0.0 ], [ -10792286.2543, 3258063.939399998635054, 0.0 ], [ -10792491.5442, 3257725.292599998414516, 0.0 ], [ -10793497.4651, 3258276.9983000010252, 0.0 ], [ -10793325.6298, 3258606.826099999248981, 0.0 ] ] ] ] } },
{ "type": "Feature", "properties": { "OBJECTID": 176, "Name": "AB-5", "FolderPath": "Johny Jurisich", "SymbolID": 0, "AltMode": 0, "Base": 0.0, "Clamped": -1, "Extruded": 0, "Snippet": " ", "PopupInfo": "Declined", "SHAPE_Length": 2802.8149504056851, "SHAPE_Area": 400625.22934161907 }, "geometry": { "type": "MultiPolygon", "coordinates": [ [ [ [ -10791471.9375, 3257565.235300000756979, 0.0 ], [ -10791582.1858, 3257140.220300000160933, 0.0 ], [ -10792461.131, 3257708.489700000733137, 0.0 ], [ -10792255.841, 3258047.782400000840425, 0.0 ], [ -10791471.9375, 3257565.235300000756979, 0.0 ] ] ] ] } },
{ "type": "Feature", "properties": { "OBJECTID": 177, "Name": "AB-6", "FolderPath": "Johny Jurisich", "SymbolID": 0, "AltMode": 0, "Base": 0.0, "Clamped": -1, "Extruded": 0, "Snippet": " ", "PopupInfo": "Declined", "SHAPE_Length": 2862.9774344338784, "SHAPE_Area": 439270.53747418732 }, "geometry": { "type": "MultiPolygon", "coordinates": [ [ [ [ -10792185.8903, 3257488.115499999374151, 0.0 ], [ -10793057.9924, 3257197.30460000038147, 0.0 ], [ -10793368.9688, 3257436.415399998426437, 0.0 ], [ -10792965.2318, 3257943.947200000286102, 0.0 ], [ -10792185.8903, 3257488.115499999374151, 0.0 ] ] ] ] } },
{ "type": "Feature", "properties": { "OBJECTID": 178, "Name": "AB-7", "FolderPath": "Johny Jurisich", "SymbolID": 0, "AltMode": 0, "Base": 0.0, "Clamped": -1, "Extruded": 0, "Snippet": " ", "PopupInfo": "Declined", "SHAPE_Length": 2830.5086469521852, "SHAPE_Area": 480616.50861146959 }, "geometry": { "type": "MultiPolygon", "coordinates": [ [ [ [ -10791189.8539, 3261038.449799999594688, 0.0 ], [ -10790728.3316, 3260704.468899998813868, 0.0 ], [ -10791269.6888, 3260053.337600000202656, 0.0 ], [ -10791729.6904, 3260388.595100000500679, 0.0 ], [ -10791189.8539, 3261038.449799999594688, 0.0 ] ] ] ] } },
{ "type": "Feature", "properties": { "OBJECTID": 179, "Name": "AB-8", "FolderPath": "Justin Woody", "SymbolID": 0, "AltMode": 0, "Base": 0.0, "Clamped": -1, "Extruded": 0, "Snippet": " ", "PopupInfo": "Declined", "SHAPE_Length": 2706.3954167231263, "SHAPE_Area": 427675.5843456632 }, "geometry": { "type": "MultiPolygon", "coordinates": [ [ [ [ -10790291.9004, 3260388.595100000500679, 0.0 ], [ -10790831.7369, 3259734.24720000103116, 0.0 ], [ -10791241.5565, 3260032.868999999016523, 0.0 ], [ -10790700.1993, 3260684.214800000190735, 0.0 ], [ -10790291.9004, 3260388.595100000500679, 0.0 ] ] ] ] } },
{ "type": "Feature", "properties": { "OBJECTID": 180, "Name": "GB-26", "FolderPath": "Johny Jurisich", "SymbolID": 0, "AltMode": 0, "Base": 0.0, "Clamped": -1, "Extruded": 0, "Snippet": " ", "PopupInfo": "Declined", "SHAPE_Length": 3517.7075434858452, "SHAPE_Area": 502135.2422888804 }, "geometry": { "type": "MultiPolygon", "coordinates": [ [ [ [ -10545282.8967, 3436946.673100002110004, 0.0 ], [ -10545297.343, 3437411.777999997138977, 0.0 ], [ -10544334.0008, 3438163.4054000005126, 0.0 ], [ -10544137.8348, 3437840.21339999884367, 0.0 ], [ -10545282.8967, 3436946.673100002110004, 0.0 ] ] ] ] } },
{ "type": "Feature", "properties": { "OBJECTID": 181, "Name": "GB-28", "FolderPath": "Johny Jurisich", "SymbolID": 0, "AltMode": 0, "Base": 0.0, "Clamped": -1, "Extruded": 0, "Snippet": " ", "PopupInfo": "Approved", "SHAPE_Length": 3769.3091504309104, "SHAPE_Area": 509863.71263709222 }, "geometry": { "type": "MultiPolygon", "coordinates": [ [ [ [ -10543809.8205, 3437583.797899998724461, 0.0 ], [ -10543822.3332, 3437402.5176, 0.0 ], [ -10543689.5746, 3437254.781800001859665, 0.0 ], [ -10544443.4888, 3436666.744599997997284, 0.0 ], [ -10544602.3985, 3436392.499300003051758, 0.0 ], [ -10544779.5561, 3436390.3158999979496, 0.0 ], [ -10545058.5983, 3436609.537000000476837, 0.0 ], [ -10543809.8205, 3437583.797899998724461, 0.0 ] ] ] ] } },
{ "type": "Feature", "properties": { "OBJECTID": 182, "Name": "GB-30", "FolderPath": "Johny Jurisich", "SymbolID": 0, "AltMode": 0, "Base": 0.0, "Clamped": -1, "Extruded": 0, "Snippet": " ", "PopupInfo": "Declined", "SHAPE_Length": 3338.7761367501457, "SHAPE_Area": 512111.23273517768 }, "geometry": { "type": "MultiPolygon", "coordinates": [ [ [ [ -10542789.7642, 3435970.225199997425079, 0.0 ], [ -10542959.3184, 3435971.971900001168251, 0.0 ], [ -10543236.0797, 3436361.494199998676777, 0.0 ], [ -10543662.6266, 3436351.887000001966953, 0.0 ], [ -10543151.772, 3436750.571699999272823, 0.0 ], [ -10542958.431, 3436639.50900000333786, 0.0 ], [ -10542786.5612, 3436693.021200001239777, 0.0 ], [ -10542300.8699, 3436351.450400002300739, 0.0 ], [ -10542789.7642, 3435970.225199997425079, 0.0 ] ] ] ] } },
{ "type": "Feature", "properties": { "OBJECTID": 183, "Name": "GB-32", "FolderPath": "Johny Jurisich", "SymbolID": 0, "AltMode": 0, "Base": 0.0, "Clamped": -1, "Extruded": 0, "Snippet": " ", "PopupInfo": "Needs to be Modified", "SHAPE_Length": 2990.5787946364162, "SHAPE_Area": 418761.96101329278 }, "geometry": { "type": "MultiPolygon", "coordinates": [ [ [ [ -10542740.3426, 3434958.91950000077486, 0.0 ], [ -10542740.3426, 3434958.91950000077486, 0.0 ], [ -10543369.8983, 3435653.201200000941753, 0.0 ], [ -10543060.4427, 3435910.837099999189377, 0.0 ], [ -10542634.6561, 3435444.039399996399879, 0.0 ], [ -10542503.1186, 3435518.271799996495247, 0.0 ], [ -10542351.052, 3435479.409000001847744, 0.0 ], [ -10542305.4319, 3435400.810199998319149, 0.0 ], [ -10542740.3426, 3434958.91950000077486, 0.0 ] ] ] ] } },
{ "type": "Feature", "properties": { "OBJECTID": 184, "Name": "GB-12", "FolderPath": "Johny Jurisich", "SymbolID": 0, "AltMode": 0, "Base": 0.0, "Clamped": -1, "Extruded": 0, "Snippet": " ", "PopupInfo": "Needs to be Modified", "SHAPE_Length": 2817.1184242881232, "SHAPE_Area": 493075.58359379001 }, "geometry": { "type": "MultiPolygon", "coordinates": [ [ [ [ -10557585.0875, 3438134.143100000917912, 0.0 ], [ -10557812.4271, 3438742.987700000405312, 0.0 ], [ -10557151.6976, 3439073.627499997615814, 0.0 ], [ -10556938.0439, 3438363.002400003373623, 0.0 ], [ -10557585.0875, 3438134.143100000917912, 0.0 ] ] ] ] } },
{ "type": "Feature", "properties": { "OBJECTID": 185, "Name": "GB-13", "FolderPath": "Johny Jurisich", "SymbolID": 0, "AltMode": 0, "Base": 0.0, "Clamped": -1, "Extruded": 0, "Snippet": " ", "PopupInfo": "Approved", "SHAPE_Length": 2563.1379668438253, "SHAPE_Area": 399503.56854371732 }, "geometry": { "type": "MultiPolygon", "coordinates": [ [ [ [ -10558166.7424, 3437355.003799997270107, 0.0 ], [ -10558374.3133, 3437817.502899996936321, 0.0 ], [ -10557677.8481, 3438064.263300001621246, 0.0 ], [ -10557467.2359, 3437499.123499996960163, 0.0 ], [ -10558166.7424, 3437355.003799997270107, 0.0 ] ] ] ] } },
{ "type": "Feature", "properties": { "OBJECTID": 186, "Name": "GB-20", "FolderPath": "Johny Jurisich", "SymbolID": 0, "AltMode": 0, "Base": 0.0, "Clamped": -1, "Extruded": 0, "Snippet": " ", "PopupInfo": "Approved", "SHAPE_Length": 3059.6573531956096, "SHAPE_Area": 432668.23027542589 }, "geometry": { "type": "MultiPolygon", "coordinates": [ [ [ [ -10547871.8311, 3436322.628899998962879, 0.0 ], [ -10548172.9231, 3436556.696400001645088, 0.0 ], [ -10548368.3287, 3436518.70380000025034, 0.0 ], [ -10548822.2477, 3436819.590899996459484, 0.0 ], [ -10548832.1319, 3437101.269400000572205, 0.0 ], [ -10548411.6677, 3437206.518299996852875, 0.0 ], [ -10547728.1282, 3436403.853200003504753, 0.0 ], [ -10547871.8311, 3436322.628899998962879, 0.0 ] ] ] ] } },
{ "type": "Feature", "properties": { "OBJECTID": 187, "Name": "GB-24", "FolderPath": "Johny Jurisich", "SymbolID": 0, "AltMode": 0, "Base": 0.0, "Clamped": -1, "Extruded": 0, "Snippet": " ", "PopupInfo": "Conditional", "SHAPE_Length": 2678.7889470624077, "SHAPE_Area": 439409.4759294882 }, "geometry": { "type": "MultiPolygon", "coordinates": [ [ [ [ -10546606.6367, 3436322.19200000166893, 0.0 ], [ -10546800.5217, 3437003.445600003004074, 0.0 ], [ -10546142.0732, 3437192.106700003147125, 0.0 ], [ -10545965.6758, 3436824.394599996507168, 0.0 ], [ -10546085.0482, 3436776.357100002467632, 0.0 ], [ -10546290.3382, 3436408.656900003552437, 0.0 ], [ -10546606.6367, 3436322.19200000166893, 0.0 ] ] ] ] } },
{ "type": "Feature", "properties": { "OBJECTID": 188, "Name": "GB-22", "FolderPath": "Johny Jurisich", "SymbolID": 0, "AltMode": 0, "Base": 0.0, "Clamped": -1, "Extruded": 0, "Snippet": " ", "PopupInfo": "Needs to be Modified", "SHAPE_Length": 3824.9292104825536, "SHAPE_Area": 534277.53529416921 }, "geometry": { "type": "MultiPolygon", "coordinates": [ [ [ [ -10547723.5661, 3435701.671300001442432, 0.0 ], [ -10547895.4014, 3435859.309600003063679, 0.0 ], [ -10548344.7583, 3435744.464800000190735, 0.0 ], [ -10548731.768, 3435849.70269999653101, 0.0 ], [ -10548784.2309, 3436102.975900001823902, 0.0 ], [ -10548115.1378, 3436078.958400003612041, 0.0 ], [ -10548039.1045, 3436189.002499997615814, 0.0 ], [ -10547341.1186, 3436193.806100003421307, 0.0 ], [ -10547138.87, 3435914.767200000584126, 0.0 ], [ -10547723.5661, 3435701.671300001442432, 0.0 ] ] ] ] } },
{ "type": "Feature", "properties": { "OBJECTID": 189, "Name": "GB-18", "FolderPath": "Johny Jurisich", "SymbolID": 0, "AltMode": 0, "Base": 0.0, "Clamped": -1, "Extruded": 0, "Snippet": " ", "PopupInfo": "Conditional", "SHAPE_Length": 2664.7847387355791, "SHAPE_Area": 384090.16201597254 }, "geometry": { "type": "MultiPolygon", "coordinates": [ [ [ [ -10554063.9845, 3439682.516199998557568, 0.0 ], [ -10554686.6974, 3440305.848600000143051, 0.0 ], [ -10553988.7115, 3440654.438699997961521, 0.0 ], [ -10553908.8766, 3440143.788000002503395, 0.0 ], [ -10554063.9845, 3439682.516199998557568, 0.0 ] ] ] ] } },
{ "type": "Feature", "properties": { "OBJECTID": 190, "Name": "GB-16", "FolderPath": "Johny Jurisich", "SymbolID": 0, "AltMode": 0, "Base": 0.0, "Clamped": -1, "Extruded": 0, "Snippet": " ", "PopupInfo": "Approved", "SHAPE_Length": 1665.7099539829828, "SHAPE_Area": 121192.67236012676 }, "geometry": { "type": "MultiPolygon", "coordinates": [ [ [ [ -10553956.7775, 3442068.989100001752377, 0.0 ], [ -10554101.2408, 3442143.6963, 0.0 ], [ -10554313.3738, 3442378.743000000715256, 0.0 ], [ -10554200.0842, 3442752.729400001466274, 0.0 ], [ -10553888.3476, 3442106.124300003051758, 0.0 ], [ -10553956.7775, 3442068.989100001752377, 0.0 ] ] ] ] } },
{ "type": "Feature", "properties": { "OBJECTID": 191, "Name": "GB-1", "FolderPath": "Johny Jurisich", "SymbolID": 0, "AltMode": 0, "Base": 0.0, "Clamped": -1, "Extruded": 0, "Snippet": " ", "PopupInfo": "Needs to be Modified", "SHAPE_Length": 3252.6360834636857, "SHAPE_Area": 527630.98158923502 }, "geometry": { "type": "MultiPolygon", "coordinates": [ [ [ [ -10561947.1189, 3429980.392499998211861, 0.0 ], [ -10563038.1972, 3430503.30120000243187, 0.0 ], [ -10562674.7578, 3430839.405699998140335, 0.0 ], [ -10561696.9694, 3430370.171400003135204, 0.0 ], [ -10561947.1189, 3429980.392499998211861, 0.0 ] ] ] ] } },
{ "type": "Feature", "properties": { "OBJECTID": 192, "Name": "GB-2", "FolderPath": "Nick", "SymbolID": 0, "AltMode": 0, "Base": 0.0, "Clamped": -1, "Extruded": 0, "Snippet": " ", "PopupInfo": "Approved", "SHAPE_Length": 2937.8890634904665, "SHAPE_Area": 500812.23114524421 }, "geometry": { "type": "MultiPolygon", "coordinates": [ [ [ [ -10561586.2232, 3431038.635499998927116, 0.0 ], [ -10562078.6566, 3430592.346100002527237, 0.0 ], [ -10562646.6255, 3430865.159299999475479, 0.0 ], [ -10561929.6314, 3431514.696199998259544, 0.0 ], [ -10561662.4922, 3431364.354900002479553, 0.0 ], [ -10561699.7417, 3431180.813299998641014, 0.0 ], [ -10561586.2232, 3431038.635499998927116, 0.0 ] ] ] ] } },
{ "type": "Feature", "properties": { "OBJECTID": 193, "Name": "GB-5", "FolderPath": "Johny Jurisich", "SymbolID": 0, "AltMode": 0, "Base": 0.0, "Clamped": -1, "Extruded": 0, "Snippet": " ", "PopupInfo": "Approved", "SHAPE_Length": 1824.0446502012942, "SHAPE_Area": 157903.71056916646 }, "geometry": { "type": "MultiPolygon", "coordinates": [ [ [ [ -10562763.5738, 3431711.539200000464916, 0.0 ], [ -10563173.5364, 3431340.959299996495247, 0.0 ], [ -10563323.1836, 3431976.020099997520447, 0.0 ], [ -10562763.5738, 3431711.539200000464916, 0.0 ] ] ] ] } },
{ "type": "Feature", "properties": { "OBJECTID": 194, "Name": "GB-8", "FolderPath": "Johny Jurisich", "SymbolID": 0, "AltMode": 0, "Base": 0.0, "Clamped": -1, "Extruded": 0, "Snippet": " ", "PopupInfo": "Declined", "SHAPE_Length": 2084.1590650380272, "SHAPE_Area": 241818.79121320232 }, "geometry": { "type": "MultiPolygon", "coordinates": [ [ [ [ -10561255.2158, 3439078.869000002741814, 0.0 ], [ -10561255.2158, 3439078.869000002741814, 0.0 ], [ -10561831.5482, 3438694.069399997591972, 0.0 ], [ -10562023.1522, 3438981.030000001192093, 0.0 ], [ -10561450.6214, 3439372.390000000596046, 0.0 ], [ -10561255.2158, 3439078.869000002741814, 0.0 ] ] ] ] } },
{ "type": "Feature", "properties": { "OBJECTID": 195, "Name": "GB-7", "FolderPath": "Johny Jurisich", "SymbolID": 0, "AltMode": 0, "Base": 0.0, "Clamped": -1, "Extruded": 0, "Snippet": " ", "PopupInfo": "Declined", "SHAPE_Length": 2464.4881219862823, "SHAPE_Area": 324633.90516384976 }, "geometry": { "type": "MultiPolygon", "coordinates": [ [ [ [ -10562105.2683, 3440598.960699997842312, 0.0 ], [ -10561788.9697, 3440105.348099999129772, 0.0 ], [ -10561879.4493, 3439840.2029, 0.0 ], [ -10562128.0782, 3439706.103500001132488, 0.0 ], [ -10562285.4672, 3439730.12780000269413, 0.0 ], [ -10562166.8552, 3439964.256899997591972, 0.0 ], [ -10562328.0173, 3440102.650499999523163, 0.0 ], [ -10562419.7264, 3440395.672200001776218, 0.0 ], [ -10562105.2683, 3440598.960699997842312, 0.0 ] ] ] ] } },
{ "type": "Feature", "properties": { "OBJECTID": 196, "Name": "GB-10A", "FolderPath": "Johny Jurisich", "SymbolID": 0, "AltMode": 0, "Base": 0.0, "Clamped": 0, "Extruded": 0, "Snippet": " ", "PopupInfo": "Declined", "SHAPE_Length": 1840.1568660005064, "SHAPE_Area": 209380.74775101835 }, "geometry": { "type": "MultiPolygon", "coordinates": [ [ [ [ -10559797.5985, 3440409.920299999415874, 0.0 ], [ -10560291.0334, 3440550.980999998748302, 0.0 ], [ -10560178.5839, 3440948.432199999690056, 0.0 ], [ -10559697.2391, 3440810.8235, 0.0 ], [ -10559797.5985, 3440409.920299999415874, 0.0 ] ] ] ] } },
{ "type": "Feature", "properties": { "OBJECTID": 197, "Name": "GB-33", "FolderPath": "Justin Woody", "SymbolID": 0, "AltMode": 0, "Base": 0.0, "Clamped": -1, "Extruded": 0, "Snippet": " ", "PopupInfo": "Modify", "SHAPE_Length": 2837.8650044319002, "SHAPE_Area": 390111.34495541675 }, "geometry": { "type": "MultiPolygon", "coordinates": [ [ [ [ -10542205.1327, 3434618.025399997830391, 0.0 ], [ -10541629.3071, 3435203.549800001084805, 0.0 ], [ -10541623.4131, 3434103.563100002706051, 0.0 ], [ -10541812.736, 3434024.535999998450279, 0.0 ], [ -10542205.1327, 3434618.025399997830391, 0.0 ] ] ] ] } },
{ "type": "Feature", "properties": { "OBJECTID": 198, "Name": "GB-25", "FolderPath": "Justin Woody", "SymbolID": 0, "AltMode": 0, "Base": 0.0, "Clamped": -1, "Extruded": 0, "Snippet": " ", "PopupInfo": "Declined", "SHAPE_Length": 3422.1275060458588, "SHAPE_Area": 531912.56582770974 }, "geometry": { "type": "MultiPolygon", "coordinates": [ [ [ [ -10544352.2488, 3438193.541400000452995, 0.0 ], [ -10545332.9005, 3437428.363499999046326, 0.0 ], [ -10545342.4481, 3437732.9966000020504, 0.0 ], [ -10545426.0712, 3437652.889700002968311, 0.0 ], [ -10545590.8316, 3437989.142899997532368, 0.0 ], [ -10545048.714, 3438307.971100002527237, 0.0 ], [ -10544414.5961, 3438296.178599998354912, 0.0 ], [ -10544352.2488, 3438193.541400000452995, 0.0 ] ] ] ] } },
{ "type": "Feature", "properties": { "OBJECTID": 199, "Name": "GB-27", "FolderPath": "Justin Woody", "SymbolID": 0, "AltMode": 0, "Base": 0.0, "Clamped": -1, "Extruded": 0, "Snippet": " ", "PopupInfo": "Declined", "SHAPE_Length": 3881.9838621594863, "SHAPE_Area": 530920.79371352296 }, "geometry": { "type": "MultiPolygon", "coordinates": [ [ [ [ -10545087.491, 3436631.808600001037121, 0.0 ], [ -10545357.4093, 3436844.046499997377396, 0.0 ], [ -10544119.5869, 3437810.078400000929832, 0.0 ], [ -10543816.2139, 3437623.155100002884865, 0.0 ], [ -10545087.491, 3436631.808600001037121, 0.0 ] ] ] ] } },
{ "type": "Feature", "properties": { "OBJECTID": 200, "Name": "GB-29", "FolderPath": "Justin Woody", "SymbolID": 0, "AltMode": 0, "Base": 0.0, "Clamped": -1, "Extruded": 0, "Snippet": " ", "PopupInfo": "Accepted", "SHAPE_Length": 2996.757039474528, "SHAPE_Area": 491443.43395510578 }, "geometry": { "type": "MultiPolygon", "coordinates": [ [ [ [ -10543660.698, 3437233.174800001084805, 0.0 ], [ -10543439.3896, 3436911.69200000166893, 0.0 ], [ -10543184.9533, 3436769.132200002670288, 0.0 ], [ -10543700.6432, 3436366.734499998390675, 0.0 ], [ -10544381.9018, 3436670.238300003111362, 0.0 ], [ -10543660.698, 3437233.174800001084805, 0.0 ] ] ] ] } },
{ "type": "Feature", "properties": { "OBJECTID": 201, "Name": "GB-11", "FolderPath": "Justin Woody", "SymbolID": 0, "AltMode": 0, "Base": 0.0, "Clamped": -1, "Extruded": 0, "Snippet": " ", "PopupInfo": "Contigent", "SHAPE_Length": 2861.0533247867834, "SHAPE_Area": 495623.11345357483 }, "geometry": { "type": "MultiPolygon", "coordinates": [ [ [ [ -10558387.9994, 3437849.821699999272823, 0.0 ], [ -10558610.0166, 3438344.221799999475479, 0.0 ], [ -10557844.361, 3438727.263899996876717, 0.0 ], [ -10557617.7818, 3438122.350900001823902, 0.0 ], [ -10558387.9994, 3437849.821699999272823, 0.0 ] ] ] ] } },
{ "type": "Feature", "properties": { "OBJECTID": 202, "Name": "GB-14", "FolderPath": "Justin Woody", "SymbolID": 0, "AltMode": 0, "Base": 0.0, "Clamped": -1, "Extruded": 0, "Snippet": " ", "PopupInfo": "Contigent", "SHAPE_Length": 2711.4273703472777, "SHAPE_Area": 399220.28136914328 }, "geometry": { "type": "MultiPolygon", "coordinates": [ [ [ [ -10557433.0208, 3437506.111199997365475, 0.0 ], [ -10557644.3936, 3438075.618699997663498, 0.0 ], [ -10556928.1596, 3438329.372000001370907, 0.0 ], [ -10556783.6963, 3437847.637999996542931, 0.0 ], [ -10557186.673, 3437740.200300000607967, 0.0 ], [ -10557200.3589, 3437554.151399999856949, 0.0 ], [ -10557433.0208, 3437506.111199997365475, 0.0 ] ] ] ] } },
{ "type": "Feature", "properties": { "OBJECTID": 203, "Name": "GB-23", "FolderPath": "Justin Woody", "SymbolID": 0, "AltMode": 0, "Base": 0.0, "Clamped": -1, "Extruded": 0, "Snippet": " ", "PopupInfo": "Accepted", "SHAPE_Length": 2752.4540378412566, "SHAPE_Area": 440744.14931569743 }, "geometry": { "type": "MultiPolygon", "coordinates": [ [ [ [ -10547104.6549, 3435927.4309, 0.0 ], [ -10547328.9532, 3436235.727899998426437, 0.0 ], [ -10547126.7047, 3436910.426100000739098, 0.0 ], [ -10546833.9764, 3436993.837899997830391, 0.0 ], [ -10546640.0914, 3436313.021700002253056, 0.0 ], [ -10546815.7284, 3436265.422499999403954, 0.0 ], [ -10546963.9933, 3435978.522100001573563, 0.0 ], [ -10547104.6549, 3435927.4309, 0.0 ] ] ] ] } },
{ "type": "Feature", "properties": { "OBJECTID": 204, "Name": "GB-31", "FolderPath": "Justin Woody", "SymbolID": 0, "AltMode": 0, "Base": 0.0, "Clamped": -1, "Extruded": 0, "Snippet": " ", "PopupInfo": "Modify", "SHAPE_Length": 3490.4141618342264, "SHAPE_Area": 533669.41557831317 }, "geometry": { "type": "MultiPolygon", "coordinates": [ [ [ [ -10542271.6355, 3436330.478399999439716, 0.0 ], [ -10541714.3112, 3435932.223700001835823, 0.0 ], [ -10541713.551, 3435315.752599999308586, 0.0 ], [ -10541983.8838, 3435677.635600000619888, 0.0 ], [ -10542261.706, 3435395.040200002491474, 0.0 ], [ -10542333.9827, 3435518.261100001633167, 0.0 ], [ -10542462.479, 3435739.214100003242493, 0.0 ], [ -10542733.918, 3435969.777800001204014, 0.0 ], [ -10542271.6355, 3436330.478399999439716, 0.0 ] ] ] ] } },
{ "type": "Feature", "properties": { "OBJECTID": 205, "Name": "GB-21", "FolderPath": "Justin Woody", "SymbolID": 0, "AltMode": 0, "Base": 0.0, "Clamped": -1, "Extruded": 0, "Snippet": " ", "PopupInfo": "Accepted", "SHAPE_Length": 1932.5925804466679, "SHAPE_Area": 174651.61941415386 }, "geometry": { "type": "MultiPolygon", "coordinates": [ [ [ [ -10547387.4989, 3437230.974600002169609, 0.0 ], [ -10547502.3091, 3437947.652199998497963, 0.0 ], [ -10547263.5646, 3437981.281400002539158, 0.0 ], [ -10547149.5147, 3437265.038900002837181, 0.0 ], [ -10547387.4989, 3437230.974600002169609, 0.0 ] ] ] ] } },
{ "type": "Feature", "properties": { "OBJECTID": 206, "Name": "GB-19", "FolderPath": "Justin Woody", "SymbolID": 0, "AltMode": 0, "Base": 0.0, "Clamped": -1, "Extruded": 0, "Snippet": " ", "PopupInfo": "Modify", "SHAPE_Length": 2411.6227922464232, "SHAPE_Area": 336507.97612480581 }, "geometry": { "type": "MultiPolygon", "coordinates": [ [ [ [ -10552102.325, 3438237.653399996459484, 0.0 ], [ -10552650.5251, 3438681.403099998831749, 0.0 ], [ -10552243.7469, 3438980.156400002539158, 0.0 ], [ -10551786.7867, 3438905.467399999499321, 0.0 ], [ -10552102.325, 3438237.653399996459484, 0.0 ] ] ] ] } },
{ "type": "Feature", "properties": { "OBJECTID": 207, "Name": "GB-17", "FolderPath": "Justin Woody", "SymbolID": 0, "AltMode": 0, "Base": 0.0, "Clamped": -1, "Extruded": 0, "Snippet": " ", "PopupInfo": "Contigent", "SHAPE_Length": 2446.6983487474608, "SHAPE_Area": 262830.93722466443 }, "geometry": { "type": "MultiPolygon", "coordinates": [ [ [ [ -10554863.0948, 3441017.890799999237061, 0.0 ], [ -10554931.5247, 3441157.682899996638298, 0.0 ], [ -10554704.1851, 3441276.943999998271465, 0.0 ], [ -10554739.1605, 3441591.047700002789497, 0.0 ], [ -10554496.6141, 3441707.691799998283386, 0.0 ], [ -10554044.2159, 3441412.807199999690056, 0.0 ], [ -10554863.0948, 3441017.890799999237061, 0.0 ] ] ] ] } },
{ "type": "Feature", "properties": { "OBJECTID": 208, "Name": "GB-15", "FolderPath": "Justin Woody", "SymbolID": 0, "AltMode": 0, "Base": 0.0, "Clamped": -1, "Extruded": 0, "Snippet": " ", "PopupInfo": "Modify", "SHAPE_Length": 1749.505390689797, "SHAPE_Area": 177317.16944217461 }, "geometry": { "type": "MultiPolygon", "coordinates": [ [ [ [ -10553984.1495, 3445185.652300000190735, 0.0 ], [ -10554086.7945, 3445522.137699998915195, 0.0 ], [ -10553668.6113, 3445724.03320000320673, 0.0 ], [ -10553452.6767, 3445480.1858000010252, 0.0 ], [ -10553984.1495, 3445185.652300000190735, 0.0 ] ] ] ] } },
{ "type": "Feature", "properties": { "OBJECTID": 209, "Name": "GB-3", "FolderPath": "Johny Jurisich", "SymbolID": 0, "AltMode": 0, "Base": 0.0, "Clamped": -1, "Extruded": 0, "Snippet": " ", "PopupInfo": "Needs to be Modified", "SHAPE_Length": 1685.9995979966534, "SHAPE_Area": 103980.8068833626 }, "geometry": { "type": "MultiPolygon", "coordinates": [ [ [ [ -10561357.7622, 3432000.592399999499321, 0.0 ], [ -10561653.6328, 3431399.095499999821186, 0.0 ], [ -10561902.2593, 3431539.578299999237061, 0.0 ], [ -10561379.9104, 3432012.7837999984622, 0.0 ], [ -10561357.7622, 3432000.592399999499321, 0.0 ] ] ] ] } },
{ "type": "Feature", "properties": { "OBJECTID": 210, "Name": "GB-4", "FolderPath": "Justin Woody", "SymbolID": 0, "AltMode": 0, "Base": 0.0, "Clamped": -1, "Extruded": 0, "Snippet": " ", "PopupInfo": "Accepted", "SHAPE_Length": 1597.5897101113842, "SHAPE_Area": 137230.62120810058 }, "geometry": { "type": "MultiPolygon", "coordinates": [ [ [ [ -10561118.3156, 3432254.020099997520447, 0.0 ], [ -10560736.6686, 3432596.020000003278255, 0.0 ], [ -10560641.6269, 3432551.927199997007847, 0.0 ], [ -10560698.4144, 3432044.160800002515316, 0.0 ], [ -10561118.3156, 3432254.020099997520447, 0.0 ] ] ] ] } },
{ "type": "Feature", "properties": { "OBJECTID": 211, "Name": "GB-6", "FolderPath": "Justin Woody", "SymbolID": 0, "AltMode": 0, "Base": 0.0, "Clamped": -1, "Extruded": 0, "Snippet": " ", "PopupInfo": "Declined", "SHAPE_Length": 2572.3195388994322, "SHAPE_Area": 287051.39154833666 }, "geometry": { "type": "MultiPolygon", "coordinates": [ [ [ [ -10562124.2765, 3440628.665299996733665, 0.0 ], [ -10562432.8025, 3440428.912900000810623, 0.0 ], [ -10562610.2799, 3440888.955200001597404, 0.0 ], [ -10562943.1555, 3441065.070500001311302, 0.0 ], [ -10562597.0812, 3441366.3838, 0.0 ], [ -10562124.2765, 3440628.665299996733665, 0.0 ] ] ] ] } },
{ "type": "Feature", "properties": { "OBJECTID": 212, "Name": "GB-10B", "FolderPath": "Justin Woody", "SymbolID": 0, "AltMode": 0, "Base": 0.0, "Clamped": -1, "Extruded": 0, "Snippet": " ", "PopupInfo": "Declined", "SHAPE_Length": 1877.6382581015382, "SHAPE_Area": 210719.53114115377 }, "geometry": { "type": "MultiPolygon", "coordinates": [ [ [ [ -10560389.1963, 3440204.068999998271465, 0.0 ], [ -10560300.6068, 3440517.148199997842312, 0.0 ], [ -10559806.1479, 3440375.793700002133846, 0.0 ], [ -10559923.8724, 3439905.287399999797344, 0.0 ], [ -10560389.1963, 3440204.068999998271465, 0.0 ] ] ] ] } },
{ "type": "Feature", "properties": { "OBJECTID": 213, "Name": "GB-9", "FolderPath": "Justin Woody", "SymbolID": 0, "AltMode": 0, "Base": 0.0, "Clamped": -1, "Extruded": 0, "Snippet": " ", "PopupInfo": "Accepted", "SHAPE_Length": 1740.9848646025509, "SHAPE_Area": 155439.74770567965 }, "geometry": { "type": "MultiPolygon", "coordinates": [ [ [ [ -10559301.1595, 3441207.04730000346899, 0.0 ], [ -10559301.1595, 3441207.04730000346899, 0.0 ], [ -10559529.2595, 3440990.806400001049042, 0.0 ], [ -10560022.7156, 3441087.3496999964118, 0.0 ], [ -10559917.0293, 3441357.325900003314018, 0.0 ], [ -10559301.1595, 3441207.04730000346899, 0.0 ] ] ] ] } },
{ "type": "Feature", "properties": { "OBJECTID": 218, "Name": "GB-34", "FolderPath": "Justin Woody", "SymbolID": 0, "AltMode": null, "Base": null, "Clamped": null, "Extruded": null, "Snippet": null, "PopupInfo": "Declined", "SHAPE_Length": 3865.9891382169317, "SHAPE_Area": 280357.44962983642 }, "geometry": { "type": "MultiPolygon", "coordinates": [ [ [ [ -10543924.8571, 3443048.57320000231266, 0.0 ], [ -10544112.6611, 3442946.614799998700619, 0.0 ], [ -10543837.4879, 3442296.07880000025034, 0.0 ], [ -10543420.0492, 3442522.945299997925758, 0.0 ], [ -10543405.1016, 3442273.202100001275539, 0.0 ], [ -10543829.4939, 3442014.508699998259544, 0.0 ], [ -10544309.6828, 3443093.243100002408028, 0.0 ], [ -10544007.0285, 3443238.652400001883507, 0.0 ], [ -10543924.8571, 3443048.57320000231266, 0.0 ] ] ] ] } },
{ "type": "Feature", "properties": { "OBJECTID": 219, "Name": "GB-35", "FolderPath": "Justin Woody", "SymbolID": 0, "AltMode": null, "Base": null, "Clamped": null, "Extruded": null, "Snippet": null, "PopupInfo": "Declined", "SHAPE_Length": 2489.6164693997043, "SHAPE_Area": 181410.965391056 }, "geometry": { "type": "MultiPolygon", "coordinates": [ [ [ [ -10543285.2733, 3442855.307599999010563, 0.0 ], [ -10543359.3316, 3443355.59570000320673, 0.0 ], [ -10543683.7824, 3443179.452100001275539, 0.0 ], [ -10543675.6306, 3443517.635399997234344, 0.0 ], [ -10543283.3635, 3443580.195200003683567, 0.0 ], [ -10543124.4278, 3442881.892300002276897, 0.0 ], [ -10543285.2733, 3442855.307599999010563, 0.0 ] ] ] ] } },
{ "type": "Feature", "properties": { "OBJECTID": 220, "Name": "GB-36", "FolderPath": "Justin Woody", "SymbolID": 0, "AltMode": null, "Base": null, "Clamped": null, "Extruded": null, "Snippet": null, "PopupInfo": "Declined", "SHAPE_Length": 3351.3302661613038, "SHAPE_Area": 381841.55016945233 }, "geometry": { "type": "MultiPolygon", "coordinates": [ [ [ [ -10541029.2501, 3443053.717000000178814, 0.0 ], [ -10541437.3652, 3443026.408900000154972, 0.0 ], [ -10541215.3299, 3442741.4628000035882, 0.0 ], [ -10541524.2407, 3442873.24719999730587, 0.0 ], [ -10541785.3626, 3443849.953599996864796, 0.0 ], [ -10541529.706, 3443890.831000000238419, 0.0 ], [ -10541029.2501, 3443053.717000000178814, 0.0 ] ] ] ] } },
{ "type": "Feature", "properties": { "OBJECTID": 221, "Name": "GB-37", "FolderPath": "Justin Woody", "SymbolID": 0, "AltMode": null, "Base": null, "Clamped": null, "Extruded": null, "Snippet": null, "PopupInfo": "Declined", "SHAPE_Length": 1242.7588864407135, "SHAPE_Area": 58070.47212082467 }, "geometry": { "type": "MultiPolygon", "coordinates": [ [ [ [ -10538903.9024, 3437807.148500002920628, 0.0 ], [ -10538835.9583, 3437297.850699998438358, 0.0 ], [ -10539010.569, 3437529.316500000655651, 0.0 ], [ -10539056.697, 3437811.719800002872944, 0.0 ], [ -10538903.9024, 3437807.148500002920628, 0.0 ] ] ] ] } },
{ "type": "Feature", "properties": { "OBJECTID": 222, "Name": "AB-13", "FolderPath": "Johny Jurisich", "SymbolID": 0, "AltMode": null, "Base": null, "Clamped": null, "Extruded": null, "Snippet": null, "PopupInfo": "Declined", "SHAPE_Length": 2335.1857160880099, "SHAPE_Area": 293853.87257260323 }, "geometry": { "type": "MultiPolygon", "coordinates": [ [ [ [ -10801540.0357, 3267226.616799999028444, 0.0 ], [ -10801972.383, 3266768.611000001430511, 0.0 ], [ -10802367.6858, 3267439.467999998480082, 0.0 ], [ -10802210.7288, 3267539.999699998646975, 0.0 ], [ -10801540.0357, 3267226.616799999028444, 0.0 ] ] ] ] } },
{ "type": "Feature", "properties": { "OBJECTID": 223, "Name": "AB-14", "FolderPath": null, "SymbolID": 0, "AltMode": null, "Base": null, "Clamped": null, "Extruded": null, "Snippet": null, "PopupInfo": null, "SHAPE_Length": 2823.0165364473869, "SHAPE_Area": 381281.15189498826 }, "geometry": { "type": "MultiPolygon", "coordinates": [ [ [ [ -10801415.5114, 3268367.462099999189377, 0.0 ], [ -10801401.4793, 3267954.519200000911951, 0.0 ], [ -10802481.9466, 3268369.466600000858307, 0.0 ], [ -10802193.3774, 3268671.065000001341105, 0.0 ], [ -10801415.5114, 3268367.462099999189377, 0.0 ] ] ] ] } },
{ "type": "Feature", "properties": { "OBJECTID": 224, "Name": "AB-17", "FolderPath": "Johny Jurisich", "SymbolID": 0, "AltMode": null, "Base": null, "Clamped": null, "Extruded": null, "Snippet": null, "PopupInfo": "Declined", "SHAPE_Length": 3302.8220689224909, "SHAPE_Area": 510501.05255003262 }, "geometry": { "type": "MultiPolygon", "coordinates": [ [ [ [ -10799291.7092, 3262417.241799999028444, 0.0 ], [ -10800355.9925, 3263166.355500001460314, 0.0 ], [ -10800105.0167, 3263503.691700000315905, 0.0 ], [ -10799178.2746, 3262848.4814000017941, 0.0 ], [ -10799291.7092, 3262417.241799999028444, 0.0 ] ] ] ] } },
{ "type": "Feature", "properties": { "OBJECTID": 225, "Name": "AB-20", "FolderPath": null, "SymbolID": 0, "AltMode": null, "Base": null, "Clamped": null, "Extruded": null, "Snippet": null, "PopupInfo": null, "SHAPE_Length": 2661.7774847960854, "SHAPE_Area": 314620.9717841142 }, "geometry": { "type": "MultiPolygon", "coordinates": [ [ [ [ -10798886.7314, 3261956.85080000013113, 0.0 ], [ -10798558.9883, 3261443.651299998164177, 0.0 ], [ -10798583.5031, 3260851.912099998444319, 0.0 ], [ -10798978.7901, 3260898.231600001454353, 0.0 ], [ -10798886.7314, 3261956.85080000013113, 0.0 ] ] ] ] } },
{ "type": "Feature", "properties": { "OBJECTID": 226, "Name": "AB-16", "FolderPath": "Johny Jurisich", "SymbolID": 0, "AltMode": null, "Base": null, "Clamped": null, "Extruded": null, "Snippet": null, "PopupInfo": "Approved", "SHAPE_Length": 1397.5629407414831, "SHAPE_Area": 112869.88556171549 }, "geometry": { "type": "MultiPolygon", "coordinates": [ [ [ [ -10799823.1484, 3261466.846700001507998, 0.0 ], [ -10799942.5942, 3261134.71000000089407, 0.0 ], [ -10800216.8332, 3261165.988600000739098, 0.0 ], [ -10800046.9619, 3261628.353399999439716, 0.0 ], [ -10799823.1484, 3261466.846700001507998, 0.0 ] ] ] ] } },
{ "type": "Feature", "properties": { "OBJECTID": 227, "Name": "AB-9", "FolderPath": "Johny Jurisich", "SymbolID": 0, "AltMode": null, "Base": null, "Clamped": null, "Extruded": null, "Snippet": null, "PopupInfo": "Declined", "SHAPE_Length": 2438.9504159377161, "SHAPE_Area": 359132.34203343693 }, "geometry": { "type": "MultiPolygon", "coordinates": [ [ [ [ -10807697.8953, 3267687.137800000607967, 0.0 ], [ -10808107.7557, 3267394.778000000864267, 0.0 ], [ -10808414.4527, 3268082.12779999896884, 0.0 ], [ -10808111.1071, 3268342.468199998140335, 0.0 ], [ -10807776.7034, 3267910.169599998742342, 0.0 ], [ -10807697.8953, 3267687.137800000607967, 0.0 ] ] ] ] } },
{ "type": "Feature", "properties": { "OBJECTID": 228, "Name": "AB-10", "FolderPath": "Johny Jurisich", "SymbolID": 0, "AltMode": null, "Base": null, "Clamped": null, "Extruded": null, "Snippet": null, "PopupInfo": "Declined", "SHAPE_Length": 2558.0990764028493, "SHAPE_Area": 359121.37103888486 }, "geometry": { "type": "MultiPolygon", "coordinates": [ [ [ [ -10807439.9619, 3266957.1415, 0.0 ], [ -10807750.432, 3266593.915600001811981, 0.0 ], [ -10808093.3464, 3267362.483600001782179, 0.0 ], [ -10807685.8806, 3267653.134700000286102, 0.0 ], [ -10807439.9619, 3266957.1415, 0.0 ] ] ] ] } },
{ "type": "Feature", "properties": { "OBJECTID": 229, "Name": "AB-12", "FolderPath": null, "SymbolID": 0, "AltMode": null, "Base": null, "Clamped": null, "Extruded": null, "Snippet": null, "PopupInfo": null, "SHAPE_Length": 3087.8477538487909, "SHAPE_Area": 464960.72945156094 }, "geometry": { "type": "MultiPolygon", "coordinates": [ [ [ [ -10805269.4545, 3266551.120000001043081, 0.0 ], [ -10805739.6884, 3266545.267200000584126, 0.0 ], [ -10806235.354, 3267468.648699998855591, 0.0 ], [ -10806172.3669, 3267553.129700001329184, 0.0 ], [ -10805718.5173, 3267440.893800001591444, 0.0 ], [ -10805269.4545, 3266551.120000001043081, 0.0 ] ] ] ] } },
{ "type": "Feature", "properties": { "OBJECTID": 230, "Name": "AB-11", "FolderPath": "Johny Jurisich", "SymbolID": 0, "AltMode": null, "Base": null, "Clamped": null, "Extruded": null, "Snippet": null, "PopupInfo": "Declined", "SHAPE_Length": 2889.0882699153099, "SHAPE_Area": 465243.48129317776 }, "geometry": { "type": "MultiPolygon", "coordinates": [ [ [ [ -10805778.6711, 3266544.781399998813868, 0.0 ], [ -10806564.6568, 3266534.961199998855591, 0.0 ], [ -10806712.823, 3266828.221200000494719, 0.0 ], [ -10806258.1717, 3267438.044399999082088, 0.0 ], [ -10805778.6711, 3266544.781399998813868, 0.0 ] ] ] ] } },
{ "type": "Feature", "properties": { "OBJECTID": 231, "Name": "AB-19", "FolderPath": "Johny Jurisich", "SymbolID": 0, "AltMode": null, "Base": null, "Clamped": null, "Extruded": null, "Snippet": null, "PopupInfo": "Declined", "SHAPE_Length": 3118.9120933139907, "SHAPE_Area": 448944.45902255538 }, "geometry": { "type": "MultiPolygon", "coordinates": [ [ [ [ -10797541.4328, 3263498.080200001597404, 0.0 ], [ -10797460.4641, 3263171.731100000441074, 0.0 ], [ -10798676.9167, 3263538.148800000548363, 0.0 ], [ -10798637.8185, 3263846.9353, 0.0 ], [ -10798291.5035, 3263899.441100001335144, 0.0 ], [ -10797541.4328, 3263498.080200001597404, 0.0 ] ] ] ] } },
{ "type": "Feature", "properties": { "OBJECTID": 232, "Name": "AB-18", "FolderPath": null, "SymbolID": 0, "AltMode": null, "Base": null, "Clamped": null, "Extruded": null, "Snippet": null, "PopupInfo": null, "SHAPE_Length": 3235.1762838335098, "SHAPE_Area": 448777.04636258556 }, "geometry": { "type": "MultiPolygon", "coordinates": [ [ [ [ -10797450.748, 3263132.569200001657009, 0.0 ], [ -10797393.1186, 3262900.284600000828505, 0.0 ], [ -10798510.9613, 3262973.090399999171495, 0.0 ], [ -10798709.5082, 3263280.7445, 0.0 ], [ -10798681.3359, 3263503.245000001043081, 0.0 ], [ -10797450.748, 3263132.569200001657009, 0.0 ] ] ] ] } },
{ "type": "Feature", "properties": { "OBJECTID": 233, "Name": "GB-38", "FolderPath": "Johny Jurisich", "SymbolID": 0, "AltMode": null, "Base": null, "Clamped": null, "Extruded": null, "Snippet": null, "PopupInfo": "Needs to be Modified", "SHAPE_Length": 3173.7956481840415, "SHAPE_Area": 521101.40561085381 }, "geometry": { "type": "MultiPolygon", "coordinates": [ [ [ [ -10567082.1585, 3408335.200000002980232, 0.0 ], [ -10567731.0318, 3407637.473800003528595, 0.0 ], [ -10568253.1555, 3407636.821999996900558, 0.0 ], [ -10567783.8905, 3408495.962300002574921, 0.0 ], [ -10567082.1585, 3408335.200000002980232, 0.0 ] ] ] ] } }
]
}
